LEMUR-1                 
1 40044U 14033AL  26195.91469812  .00000784  00000+0  95734-4 0  9996
2 40044  97.7909 345.1100 0047802 348.8746  11.1407 14.85336384649581
LEMUR-2-GREENBERG       
1 42837U 17042N   26195.45912462  .00009907  00000+0  32148-3 0  9999
2 42837  97.3823  15.9753 0007194 263.1794  96.8630 15.32137916492567
LEMUR-2-ANDIS           
1 42838U 17042P   26195.74949200  .00012302  00000+0  35384-3 0  9990
2 42838  97.3675  16.5481 0007183 259.4911 100.5524 15.35912431492689
LEMUR-2-MONSON          
1 42839U 17042Q   26195.46214998  .00007974  00000+0  28795-3 0  9996
2 42839  97.4085  15.9085 0005293 249.0733 110.9940 15.28740925492334
LEMUR-2-FURIAUS         
1 42840U 17042R   26195.92904001  .00009828  00000+0  32917-3 0  9991
2 42840  97.3766  14.3354 0006064 331.3156  28.7751 15.31125457492454
LEMUR-2-PETERG          
1 42841U 17042S   26195.48935450  .00011220  00000+0  33253-3 0  9998
2 42841  97.3988  20.5866 0003244 222.8450 137.2541 15.35013227492623
LEMUR-2-DEMBITZ         
1 42842U 17042T   26195.94877824  .00009235  00000+0  30974-3 0  9990
2 42842  97.3822  17.4000 0005053 275.9305  84.1360 15.31105660492598
LEMUR-2-ZACHARY         
1 42845U 17042W   26195.47220841  .00031854  00000+0  51719-3 0  9994
2 42845  97.3570  27.7354 0002507 253.1238 106.9740 15.52670272493439
LEMUR-2-AMANDA-SVANTE   
1 48269U 21034B   26195.86445113  .00019036  00000+0  54551-3 0  9995
2 48269  97.5754 274.9119 0004621 144.0064 216.1491 15.35946605285309
LEMUR-2-SPECIAL-K       
1 48273U 21034F   26195.76158141  .00170832  00000+0  11529-2 0  9990
2 48273  97.5639 284.8161 0006329 214.5828 145.5025 15.74566415286018
LEMUR-2-EMBRIONOVIS     
1 56970U 23084AQ  26195.39935537  .00008371  00000+0  22446-3 0  9990
2 56970  97.6319 340.6609 0008246 209.4980 150.5800 15.38217107171861
LEMUR-2-DEVERILL-M-T    
1 57391U 23100F   26195.64647998  .00015402  00000+0  37507-3 0  9993
2 57391  99.4454 242.3642 0004688 299.5380  60.5392 15.41075608165472
LEMUR-2-BASS            
1 58259U 23174D   26195.76209239  .00010260  00000+0  22693-3 0  9990
2 58259  97.3850 280.8760 0007695  79.6377 280.5738 15.43985516149611
LEMUR-2-JK0903EM1407    
1 58336U 23174CJ  26195.79677955  .00017155  00000+0  27591-3 0  9995
2 58336  97.3927 287.0724 0003652  35.1990 324.9504 15.53054759150015
LEMUR-2-MJR092620       
1 58340U 23174CN  26195.80753576  .00011388  00000+0  23635-3 0  9993
2 58340  97.3981 286.3639 0005329  32.0286 328.1286 15.45853766149910
LEMUR-2-NIMBUS2000      
1 58899U 24022A   26195.55427785  .00012856  00000+0  31230-3 0  9998
2 58899  97.4080  45.9166 0008815  30.9199 329.2565 15.41099325136486
LEMUR-2-VALHALLA        
1 58900U 24022B   26195.88366153  .00009059  00000+0  22528-3 0  9999
2 58900  97.4076  46.2208 0009238  25.2349 334.9347 15.40481564136535
LEMUR-2-CAEL            
1 58903U 24022E   26195.54504394  .00010462  00000+0  24854-3 0  9990
2 58903  97.4059  46.8629 0007196  12.0765 348.0653 15.41842130136558
LEMUR-2-JOHNNYTRUONG    
1 59146U 24043BA  26195.89769612  .00027619  00000+0  31080-3 0  9998
2 59146  97.5390 349.3635 0004103  94.8914 265.2812 15.62544741132366
LEMUR-2-TOMATOKECHUP    
1 60471U 24149D   26195.78889043  .00006252  00000+0  17738-3 0  9991
2 60471  97.3802 277.9151 0003276 123.0266 237.1294 15.36577548106409
LEMUR-2-STELLA          
1 60533U 24149BT  26195.80908741  .00005629  00000+0  32835-3 0  9992
2 60533  97.6739 278.3948 0001238 117.0060 243.1297 15.12366864104678
LEMUR-2-MARHISYAM       
1 60536U 24149BW  26195.79984777  .00005421  00000+0  32156-3 0  9992
2 60536  97.6884 278.8613 0002535  69.4744 290.6758 15.11772815104659
LEMUR-2-AHMED-ASRAR     
1 60576U 24149DN  26195.80675463  .00005930  00000+0  33684-3 0  9999
2 60576  97.7008 281.0702 0001134 205.8662 154.2512 15.13301229104748
LEMUR-2-LLOYD           
1 60577U 24149DP  26195.94979387  .00005245  00000+0  32900-3 0  9996
2 60577  97.6750 277.1020 0004805  73.1029 287.0726 15.09748859104585
LEMUR-2-SQUIRRELCOMM    
1 60578U 24149DQ  26195.73889149  .00002486  00000+0  16827-3 0  9994
2 60578  97.6714 276.5676 0004092 330.3631  29.7364 15.07444509104550
LEMUR-2-SIERRINI        
1 60579U 24149DR  26195.76246818  .00006152  00000+0  36694-3 0  9996
2 60579  97.6848 278.4856 0006490  91.8532 268.3442 15.11508075104623
LEMUR-2-WILSON          
1 62694U 25009CP  26195.73341221  .00000680  00000+0  66876-4 0  9999
2 62694  97.7021 273.7153 0002049 327.3047  32.8047 14.95275839 81471
LEMUR-2-STAR-FOX        
1 62696U 25009CR  26195.72736177  .00003448  00000+0  26191-3 0  9998
2 62696  97.6911 277.1384 0002290  44.2985 315.8423 15.02837553 81690
LEMUR-2-ARIANNA         
1 62699U 25009CU  26195.92557572  .00003776  00000+0  28634-3 0  9991
2 62699  97.6853 277.0874 0002554  51.0319 309.1133 15.02840885 81721
LEMUR-2-ALISIA          
1 62706U 25009DB  26195.76486758  .00004418  00000+0  33134-3 0  9994
2 62706  97.6972 277.7525 0004221 129.6014 230.5584 15.03171742104306
